{
"type": "FeatureCollection",
"name": "india_sf_simplified",
"crs": { "type": "name", "properties": { "name": "urn:ogc:def:crs:OGC:1.3:CRS84" } },
"features": [
{ "type": "Feature", "properties": { "AREA": 3271845.738107 }, "geometry": { "type": "MultiPolygon", "coordinates": [ [ [ [ 93.8486938, 7.2410889 ], [ 93.6865234, 7.1895142 ], [ 93.6561279, 7.1260986 ], [ 93.6651001, 7.0418701 ], [ 93.7468872, 6.9619141 ], [ 93.7509155, 6.909729 ], [ 93.835083, 6.7570801 ], [ 93.8519287, 6.8153076 ], [ 93.897522, 6.8071289 ], [ 93.901123, 6.9078979 ], [ 93.9266968, 6.954895 ], [ 93.9141235, 7.0559082 ], [ 93.8873291, 7.0870972 ], [ 93.883728, 7.18927 ], [ 93.8486938, 7.2410889 ] ] ], [ [ [ 93.7128906, 7.4442749 ], [ 93.7081299, 7.3942871 ], [ 93.6317139, 7.3615112 ], [ 93.629516600000017, 7.2689209 ], [ 93.6682739, 7.2576904 ], [ 93.7243042, 7.3082886 ], [ 93.7565308, 7.3746948 ], [ 93.7128906, 7.4442749 ] ] ], [ [ [ 93.388916, 8.0203247 ], [ 93.3363037, 8.0114746 ], [ 93.3110962, 7.9620972 ], [ 93.3782959, 7.8834839 ], [ 93.4619141, 7.9359131 ], [ 93.397522, 7.9678955 ], [ 93.388916, 8.0203247 ] ] ], [ [ [ 93.5244751, 8.2329102 ], [ 93.454895, 8.1746826 ], [ 93.4915161, 8.0623169 ], [ 93.5523071, 8.072876 ], [ 93.5040894, 8.1455078 ], [ 93.5438843, 8.1959229 ], [ 93.5244751, 8.2329102 ] ] ], [ [ [ 92.7930908, 9.2404785 ], [ 92.7246704, 9.2191162 ], [ 92.7302856, 9.1246948 ], [ 92.8024902, 9.1196899 ], [ 92.8319092, 9.1636963 ], [ 92.7930908, 9.2404785 ] ] ], [ [ [ 92.5178833, 10.8977051 ], [ 92.3812866, 10.7650757 ], [ 92.3828735, 10.6677246 ], [ 92.4208984, 10.6157227 ], [ 92.3861084, 10.5319214 ], [ 92.4506836, 10.5432739 ], [ 92.5311279, 10.5183105 ], [ 92.5682983, 10.5764771 ], [ 92.539917, 10.6146851 ], [ 92.59729, 10.6810913 ], [ 92.5870972, 10.7879028 ], [ 92.5582886, 10.8630981 ], [ 92.5178833, 10.8977051 ] ] ], [ [ [ 72.0957031, 11.1925049 ], [ 72.0012817, 11.1917114 ], [ 72.0510864, 11.1223145 ], [ 72.0957031, 11.1925049 ] ] ], [ [ [ 74.1077271, 11.2069092 ], [ 74.0900879, 11.2979126 ], [ 74.0098877, 11.3494873 ], [ 73.9691162, 11.2952881 ], [ 74.003479, 11.2474976 ], [ 74.1077271, 11.2069092 ] ] ], [ [ [ 92.6403198, 11.5106812 ], [ 92.6115112, 11.4597168 ], [ 92.6195068, 11.4022827 ], [ 92.6923218, 11.376709 ], [ 92.6668701, 11.4918823 ], [ 92.6403198, 11.5106812 ] ] ], [ [ [ 71.8449097, 11.8355103 ], [ 71.7858887, 12.0020752 ], [ 71.7344971, 11.9611206 ], [ 71.7766724, 11.8406982 ], [ 71.8449097, 11.8355103 ] ] ], [ [ [ 92.9743042, 12.0421143 ], [ 92.9562988, 11.9841309 ], [ 93.0532837, 11.8961182 ], [ 92.9960938, 12.0352783 ], [ 92.9743042, 12.0421143 ] ] ], [ [ [ 92.7554932, 12.1586914 ], [ 92.6630859, 12.2180786 ], [ 92.6254883, 12.1072998 ], [ 92.6121216, 12.0090942 ], [ 92.5792847, 11.927124 ], [ 92.5418701, 11.9224854 ], [ 92.552124, 11.7224731 ], [ 92.5883179, 11.718689 ], [ 92.5958862, 11.7098999 ], [ 92.6057129, 11.6085205 ], [ 92.6721191, 11.5037231 ], [ 92.7272949, 11.5200806 ], [ 92.756897, 11.664917 ], [ 92.6851196, 11.631897 ], [ 92.7399292, 11.6906738 ], [ 92.7659302, 11.7520752 ], [ 92.7838745, 11.9368896 ], [ 92.7750854, 12.031311 ], [ 92.741272, 12.0740967 ], [ 92.7373047, 12.111084 ], [ 92.7554932, 12.1586914 ] ] ], [ [ [ 92.8621216, 12.241272 ], [ 92.8873291, 12.2858887 ], [ 92.8096924, 12.3134766 ], [ 92.7432861, 12.2473145 ], [ 92.7683105, 12.1887207 ], [ 92.739502, 12.0993042 ], [ 92.7628784, 12.0651245 ], [ 92.8461304, 12.197876 ], [ 92.8621216, 12.241272 ] ] ], [ [ [ 92.9506836, 12.6273193 ], [ 92.9620972, 12.7532959 ], [ 92.9282837, 12.8839111 ], [ 92.8007202, 12.8977051 ], [ 92.7235107, 12.8267212 ], [ 92.7387085, 12.7346802 ], [ 92.7363281, 12.6398926 ], [ 92.7009277, 12.6002808 ], [ 92.7003174, 12.3341064 ], [ 92.8773193, 12.31427 ], [ 92.8336792, 12.4094849 ], [ 92.9420776, 12.4503174 ], [ 92.975708, 12.541687 ], [ 92.9506836, 12.6273193 ] ] ], [ [ [ 92.6990967, 12.989502 ], [ 92.6630859, 12.8782959 ], [ 92.7229004, 12.9019165 ], [ 92.6990967, 12.989502 ] ] ], [ [ [ 92.8574829, 12.9365234 ], [ 92.9157104, 13.0552979 ], [ 92.9558716, 13.0186768 ], [ 93.0065308, 13.0319214 ], [ 93.0341187, 13.0811157 ], [ 93.0319214, 13.1787109 ], [ 93.0576782, 13.2509155 ], [ 93.0040894, 13.3181152 ], [ 93.0407104, 13.3515015 ], [ 93.043273900000017, 13.5046997 ], [ 93.0269165, 13.5789185 ], [ 92.9172974, 13.5357056 ], [ 92.8762817, 13.4752808 ], [ 92.8703003, 13.4052734 ], [ 92.8275146, 13.3190918 ], [ 92.8256836, 13.1818848 ], [ 92.7885132, 13.0169067 ], [ 92.8018799, 12.8999023 ], [ 92.8574829, 12.9365234 ] ] ], [ [ [ 92.9822998, 13.651123 ], [ 93.0134888, 13.6735229 ], [ 93.0076904, 13.6704712 ], [ 92.9822998, 13.651123 ] ] ], [ [ [ 81.3939209, 16.3355103 ], [ 81.3519287, 16.3233032 ], [ 81.2678833, 16.3101196 ], [ 81.2755127, 16.2783203 ], [ 81.3939209, 16.3355103 ] ] ], [ [ [ 89.0584717, 21.7221069 ], [ 89.0285034, 21.635498 ], [ 89.0906982, 21.6339111 ], [ 89.0584717, 21.7221069 ] ] ], [ [ [ 88.2194824, 21.7623291 ], [ 88.2351074, 21.6364746 ], [ 88.2659302, 21.5582886 ], [ 88.3115234, 21.6710815 ], [ 88.272522, 21.7520752 ], [ 88.2194824, 21.7623291 ] ] ], [ [ [ 88.744873, 21.772522 ], [ 88.6951294, 21.7446899 ], [ 88.7111206, 21.6903076 ], [ 88.7595215, 21.6843262 ], [ 88.744873, 21.772522 ] ] ], [ [ [ 88.3311157, 21.8607178 ], [ 88.3151245, 21.8577271 ], [ 88.3082886, 21.8308716 ], [ 88.2689209, 21.815918 ], [ 88.345092799999989, 21.7216797 ], [ 88.3773193, 21.7677002 ], [ 88.3502808, 21.8300781 ], [ 88.352905299999989, 21.854126 ], [ 88.3311157, 21.8607178 ] ] ], [ [ [ 88.1687012, 21.7341309 ], [ 88.170105, 21.8173218 ], [ 88.121887199999989, 21.8654785 ], [ 88.0441284, 21.7171021 ], [ 88.0574951, 21.6400757 ], [ 88.1547241, 21.6499023 ], [ 88.1687012, 21.7341309 ] ] ], [ [ [ 89.0217285, 21.8717041 ], [ 88.9829102, 21.8927002 ], [ 88.979126, 21.8720703 ], [ 88.9782715, 21.8657227 ], [ 88.9680786, 21.8615112 ], [ 88.9553223, 21.8479004 ], [ 88.9456787, 21.7843018 ], [ 89.02948, 21.8317261 ], [ 89.0217285, 21.8717041 ] ] ], [ [ [ 88.4680786, 21.828125 ], [ 88.4838867, 21.8853149 ], [ 88.4570923, 21.8955078 ], [ 88.4519043, 21.9049072 ], [ 88.4312744, 21.9008789 ], [ 88.4196777, 21.9030762 ], [ 88.4177246, 21.8878784 ], [ 88.4003296, 21.8731079 ], [ 88.3925171, 21.8327026 ], [ 88.4680786, 21.828125 ] ] ], [ [ [ 88.7255249, 21.9000854 ], [ 88.7086792, 21.8104858 ], [ 88.763916, 21.7874756 ], [ 88.7717285, 21.8762817 ], [ 88.7255249, 21.9000854 ] ] ], [ [ [ 88.8364868, 21.9179077 ], [ 88.8905029, 21.8125 ], [ 88.9528809, 21.8515015 ], [ 88.9766846, 21.8688965 ], [ 88.9669189, 21.887085 ], [ 88.9716797, 21.899292 ], [ 88.9152832, 21.9281006 ], [ 88.8867188, 21.9144897 ], [ 88.8364868, 21.9179077 ] ] ], [ [ [ 88.8117065, 22.0200806 ], [ 88.762085, 22.0153198 ], [ 88.751709, 21.9569092 ], [ 88.8300781, 21.9376831 ], [ 88.8566895, 21.9191284 ], [ 88.907287599999989, 21.9296875 ], [ 88.8997192, 22.0131226 ], [ 88.8117065, 22.0200806 ] ] ], [ [ [ 89.0026855, 22.0595093 ], [ 88.9680786, 22.0150757 ], [ 88.9794922, 22.0025024 ], [ 88.9929199, 21.973877 ], [ 89.0062866, 21.9890747 ], [ 89.0181274, 21.9755249 ], [ 88.9990845, 21.9528809 ], [ 89.0302734, 21.9266968 ], [ 89.0629272, 21.934082 ], [ 89.078125, 21.9866943 ], [ 89.0026855, 22.0595093 ] ] ], [ [ [ 88.9456787, 22.1903076 ], [ 88.9091187, 22.1342773 ], [ 88.9016724, 22.0640869 ], [ 88.9315186, 21.9420776 ], [ 88.992309600000013, 21.9069214 ], [ 89.0214844, 21.9216919 ], [ 88.9946899, 21.9420776 ], [ 89.0061035, 21.9805298 ], [ 88.9904785, 21.9707031 ], [ 88.9876709, 21.9837036 ], [ 88.9736938, 21.9868774 ], [ 88.9581299, 22.0603027 ], [ 88.9851074, 22.1478882 ], [ 88.9456787, 22.1903076 ] ] ], [ [ [ 88.7014771, 22.2077026 ], [ 88.6525269, 22.1622925 ], [ 88.6342773, 22.1057129 ], [ 88.6829224, 22.0803223 ], [ 88.789306599999989, 22.1694946 ], [ 88.7014771, 22.2077026 ] ] ], [ [ [ 88.8438721, 22.1895142 ], [ 88.7467041, 22.1328735 ], [ 88.7438965, 22.0726929 ], [ 88.8471069, 22.1417236 ], [ 88.8438721, 22.1895142 ] ] ], [ [ [ 88.989074699999989, 22.3214722 ], [ 88.9528809, 22.2750854 ], [ 88.9680786, 22.215271 ], [ 89.066894499999989, 22.1987305 ], [ 88.996887199999989, 22.2822876 ], [ 88.989074699999989, 22.3214722 ] ] ], [ [ [ 88.9334717, 22.5562744 ], [ 88.8947144, 22.4672852 ], [ 88.9260864, 22.4061279 ], [ 88.9987183, 22.4307251 ], [ 88.964477500000015, 22.5371094 ], [ 88.9334717, 22.5562744 ] ] ], [ [ [ 70.4603271, 23.0565186 ], [ 70.454895, 23.0565186 ], [ 70.453125, 23.0529175 ], [ 70.4528809, 23.0535278 ], [ 70.4509277, 23.0449219 ], [ 70.4556885, 23.0487061 ], [ 70.4606934, 23.0557251 ], [ 70.4603271, 23.0565186 ] ] ], [ [ [ 68.4763184, 23.479126 ], [ 68.4622803, 23.4545288 ], [ 68.4727173, 23.4057007 ], [ 68.475708, 23.4042969 ], [ 68.4871216, 23.4735107 ], [ 68.4857178, 23.4758911 ], [ 68.4763184, 23.479126 ] ] ], [ [ [ 68.4871216, 23.4735107 ], [ 68.497680700000018, 23.4799194 ], [ 68.4885254, 23.4863281 ], [ 68.4827271, 23.4799194 ], [ 68.4857178, 23.4758911 ], [ 68.4871216, 23.4735107 ] ] ], [ [ [ 68.4672852, 23.5933228 ], [ 68.4650879, 23.5863037 ], [ 68.4307251, 23.5341187 ], [ 68.434082, 23.5228882 ], [ 68.4755249, 23.5921021 ], [ 68.4672852, 23.5933228 ] ] ], [ [ [ 68.4849243, 23.6234741 ], [ 68.4672852, 23.5933228 ], [ 68.4755249, 23.5921021 ], [ 68.4849243, 23.6234741 ] ] ], [ [ [ 68.4085083, 23.7584839 ], [ 68.3640747, 23.8029175 ], [ 68.3322754, 23.7180786 ], [ 68.269104, 23.6513062 ], [ 68.3115234, 23.6248779 ], [ 68.3093262, 23.5834961 ], [ 68.3795166, 23.6555176 ], [ 68.4085083, 23.7584839 ] ] ], [ [ [ 68.4035034, 23.8745117 ], [ 68.3438721, 23.8386841 ], [ 68.4000854, 23.789917 ], [ 68.4390869, 23.8391113 ], [ 68.4035034, 23.8745117 ] ] ], [ [ [ 68.4541016, 23.9163208 ], [ 68.4558716, 23.9348755 ], [ 68.4512939, 23.9141235 ], [ 68.4519043, 23.9165039 ], [ 68.4541016, 23.9163208 ] ] ], [ [ [ 68.3585205, 23.9749146 ], [ 68.3421021, 23.9246826 ], [ 68.2778931, 23.9151001 ], [ 68.2094727, 23.8110962 ], [ 68.1931152, 23.7352905 ], [ 68.2385254, 23.6812744 ], [ 68.2763062, 23.7985229 ], [ 68.3375244, 23.8192749 ], [ 68.3450928, 23.9014893 ], [ 68.4188843, 23.934082 ], [ 68.3585205, 23.9749146 ] ] ], [ [ [ 88.7869263, 22.2576904 ], [ 88.827270500000012, 22.2089233 ], [ 88.90448, 22.1975098 ], [ 88.9375, 22.2977295 ], [ 88.8463135, 22.3883057 ], [ 88.8565063, 22.5117188 ], [ 88.957519499999989, 22.6102905 ], [ 88.962280299999989, 22.6940918 ], [ 88.9237061, 22.7368774 ], [ 88.97052, 22.84552 ], [ 88.9124756, 22.8803101 ], [ 88.871887199999989, 22.9716797 ], [ 88.872680699999989, 23.0980835 ], [ 88.9647217, 23.1925049 ], [ 88.916687, 23.2324829 ], [ 88.7888794, 23.2200928 ], [ 88.7244873, 23.2545166 ], [ 88.7678833, 23.444519 ], [ 88.6652832, 23.5518799 ], [ 88.6472778, 23.6107178 ], [ 88.5654907, 23.6478882 ], [ 88.5886841, 23.869873 ], [ 88.7371216, 23.9160767 ], [ 88.739502, 24.0648804 ], [ 88.7141113, 24.1204834 ], [ 88.7416992, 24.269104 ], [ 88.6928711, 24.3134766 ], [ 88.5731201, 24.3225098 ], [ 88.4459229, 24.3765259 ], [ 88.3433228, 24.3779297 ], [ 88.2700806, 24.4423218 ], [ 88.2155151, 24.4542847 ], [ 88.0993042, 24.5523071 ], [ 88.0150757, 24.6616821 ], [ 88.0684814, 24.7221069 ], [ 88.0712891, 24.7692871 ], [ 88.1434937, 24.8314819 ], [ 88.1760864, 24.9454956 ], [ 88.2211304, 24.958313 ], [ 88.3067017, 24.8792725 ], [ 88.3469238, 24.9401245 ], [ 88.3978882, 24.9440918 ], [ 88.4514771, 25.02948 ], [ 88.448486300000013, 25.1229248 ], [ 88.48730470000001, 25.2136841 ], [ 88.5892944, 25.1818848 ], [ 88.6868896, 25.210083 ], [ 88.809082, 25.1738892 ], [ 88.8485107, 25.210083 ], [ 88.9196777, 25.1657104 ], [ 89.005127, 25.3001099 ], [ 88.8895264, 25.3267212 ], [ 88.84667970000001, 25.3659058 ], [ 88.8336792, 25.4830933 ], [ 88.8018799, 25.522522 ], [ 88.6693115, 25.4746704 ], [ 88.5537109, 25.5161133 ], [ 88.4505005, 25.6013184 ], [ 88.3762817, 25.7139282 ], [ 88.3007202, 25.7589111 ], [ 88.2713013, 25.8084717 ], [ 88.211731, 25.7863159 ], [ 88.1137085, 25.7965088 ], [ 88.0944824, 25.894104 ], [ 88.125305200000014, 25.9685059 ], [ 88.1796875, 26.022522 ], [ 88.1630859, 26.1051025 ], [ 88.1829224, 26.147522 ], [ 88.2529297, 26.1925049 ], [ 88.3549194, 26.22229 ], [ 88.364074699999989, 26.2935181 ], [ 88.4525146, 26.3601074 ], [ 88.5230713, 26.3831177 ], [ 88.48730470000001, 26.4598999 ], [ 88.3776855, 26.4844971 ], [ 88.359314, 26.5095215 ], [ 88.395324699999989, 26.616272 ], [ 88.572876, 26.4578857 ], [ 88.6843262, 26.3934937 ], [ 88.7000732, 26.2789307 ], [ 88.805481, 26.3082886 ], [ 88.8261108, 26.2515259 ], [ 89.0040894, 26.295105 ], [ 88.9907227, 26.3461304 ], [ 88.9210815, 26.3630981 ], [ 88.916687, 26.406311 ], [ 88.986084, 26.420105 ], [ 89.0985107, 26.3936768 ], [ 89.1066895, 26.2893066 ], [ 89.1513062, 26.2141113 ], [ 89.161499, 26.1397095 ], [ 89.2243042, 26.1262817 ], [ 89.282287599999989, 26.0531006 ], [ 89.3577271, 26.0112915 ], [ 89.550293, 25.9989014 ], [ 89.6196899, 26.0631104 ], [ 89.5985107, 26.1616821 ], [ 89.748291, 26.1566772 ], [ 89.7880859, 26.0532837 ], [ 89.871521, 25.9760742 ], [ 89.8740845, 25.9130859 ], [ 89.8405151, 25.8776855 ], [ 89.8284912, 25.7421265 ], [ 89.8833008, 25.6152954 ], [ 89.8544922, 25.4821167 ], [ 89.8184814, 25.3881226 ], [ 89.8377075, 25.2954712 ], [ 89.9108887, 25.307312 ], [ 90.0626831, 25.2554932 ], [ 90.1152954, 25.2236938 ], [ 90.3347168, 25.1912842 ], [ 90.4475098, 25.1433105 ], [ 90.5133057, 25.1679077 ], [ 90.6392822, 25.1727295 ], [ 90.6964722, 25.1593018 ], [ 90.911499, 25.161499 ], [ 91.0667114, 25.1917114 ], [ 91.2677002, 25.2062988 ], [ 91.3483276, 25.171875 ], [ 91.4168701, 25.171875 ], [ 91.4960938, 25.1340942 ], [ 91.605896, 25.1730957 ], [ 91.6450806, 25.1237183 ], [ 91.7496948, 25.1710815 ], [ 92.0776978, 25.18573 ], [ 92.1386719, 25.1427002 ], [ 92.3479004, 25.0499268 ], [ 92.4254761, 25.02948 ], [ 92.4976807, 24.8679199 ], [ 92.40271, 24.8552856 ], [ 92.3151245, 24.9008789 ], [ 92.2504883, 24.9077148 ], [ 92.2717285, 24.8286743 ], [ 92.2661133, 24.7125244 ], [ 92.2396851, 24.6483154 ], [ 92.2335205, 24.501709 ], [ 92.1542969, 24.5032959 ], [ 92.171875, 24.4216919 ], [ 92.0944824, 24.3745117 ], [ 91.9746704, 24.3828735 ], [ 91.9279175, 24.3391113 ], [ 91.9447021, 24.2747192 ], [ 91.9152832, 24.1477051 ], [ 91.848877, 24.2055054 ], [ 91.749877900000016, 24.244873 ], [ 91.7678833, 24.1489258 ], [ 91.7022705, 24.1602783 ], [ 91.5908813, 24.0745239 ], [ 91.4282837, 24.1088867 ], [ 91.3632813, 23.9852905 ], [ 91.2844849, 23.9801025 ], [ 91.2332764, 23.8856812 ], [ 91.2540894, 23.8377075 ], [ 91.227478, 23.7453003 ], [ 91.1641235, 23.7459106 ], [ 91.1633301, 23.6015015 ], [ 91.2498779, 23.4896851 ], [ 91.3267212, 23.2385254 ], [ 91.3278809, 23.1644897 ], [ 91.3707275, 23.0748901 ], [ 91.4086914, 23.093689 ], [ 91.3845215, 23.1953125 ], [ 91.416687, 23.2612915 ], [ 91.4572754, 23.2583008 ], [ 91.5178833, 23.1442871 ], [ 91.5458984, 22.9976807 ], [ 91.621521, 22.9442749 ], [ 91.7158813, 22.9876709 ], [ 91.8212891, 23.0993042 ], [ 91.7885132, 23.3065186 ], [ 91.8927002, 23.4334717 ], [ 91.9786987, 23.4822998 ], [ 91.9404907, 23.6643066 ], [ 92.0812988, 23.6489258 ], [ 92.1367188, 23.7072754 ], [ 92.2169189, 23.6911011 ], [ 92.3101196, 23.5905151 ], [ 92.3348999, 23.4642944 ], [ 92.3790894, 23.3723145 ], [ 92.3931274, 23.2636719 ], [ 92.3588867, 23.1948853 ], [ 92.3967285, 23.0513306 ], [ 92.3754883, 22.9337158 ], [ 92.4586792, 22.8734741 ], [ 92.4564819, 22.8170776 ], [ 92.5206909, 22.7012939 ], [ 92.5568848, 22.4160767 ], [ 92.5834961, 22.3132935 ], [ 92.6085205, 22.1265259 ], [ 92.6000977, 22.0111084 ], [ 92.6876831, 22.0394897 ], [ 92.7056885, 22.1519165 ], [ 92.8146973, 22.093689 ], [ 92.8917236, 22.0098877 ], [ 92.9981079, 22.0532837 ], [ 93.0443115, 22.1361084 ], [ 93.0513306, 22.2006836 ], [ 93.1602783, 22.1795044 ], [ 93.1486816, 22.2453003 ], [ 93.1992798, 22.2778931 ], [ 93.1881104, 22.4243164 ], [ 93.1320801, 22.4719238 ], [ 93.1130981, 22.5518799 ], [ 93.1431274, 22.5831299 ], [ 93.0957031, 22.6983032 ], [ 93.0971069, 22.8074951 ], [ 93.1605225, 22.9102783 ], [ 93.1306763, 23.0443115 ], [ 93.2039185, 23.0535278 ], [ 93.2509155, 23.0031128 ], [ 93.2952881, 23.0023193 ], [ 93.355896, 23.0742798 ], [ 93.3922729, 23.2202759 ], [ 93.3659058, 23.3461304 ], [ 93.3961182, 23.4072876 ], [ 93.4326782, 23.5848999 ], [ 93.3972778, 23.8203125 ], [ 93.3969116, 23.9263306 ], [ 93.3358765, 23.9788818 ], [ 93.3522949, 24.093689 ], [ 93.4138794, 24.0753174 ], [ 93.4702759, 23.9664917 ], [ 93.6072998, 23.9688721 ], [ 93.6143188, 24.0062866 ], [ 93.737915, 23.9943237 ], [ 93.8059082, 23.9281006 ], [ 93.8936768, 23.949707 ], [ 94.0150757, 23.9282837 ], [ 94.1586914, 23.8466797 ], [ 94.1668701, 23.9227295 ], [ 94.2426758, 24.0380859 ], [ 94.2600708, 24.1616821 ], [ 94.4630737, 24.5690918 ], [ 94.5184937, 24.6101074 ], [ 94.5487061, 24.7098999 ], [ 94.6085205, 24.715271 ], [ 94.638916, 24.8419189 ], [ 94.6898804, 24.8928833 ], [ 94.699707, 24.9614868 ], [ 94.7401123, 25.0183105 ], [ 94.7437134, 25.1296997 ], [ 94.5999146, 25.1887207 ], [ 94.5971069, 25.2827148 ], [ 94.6870728, 25.4589233 ], [ 94.8109131, 25.4885254 ], [ 94.8353271, 25.5437012 ], [ 94.9193115, 25.6079102 ], [ 94.9412842, 25.6682739 ], [ 95.0510864, 25.7554932 ], [ 95.0140991, 25.8651123 ], [ 95.0266724, 25.9129028 ], [ 95.1051025, 25.9611206 ], [ 95.184082, 26.0775146 ], [ 95.1254883, 26.0941162 ], [ 95.1350708, 26.3812866 ], [ 95.0682983, 26.4603271 ], [ 95.1541138, 26.5745239 ], [ 95.15448, 26.6132812 ], [ 95.2437134, 26.6875 ], [ 95.302124, 26.6494751 ], [ 95.4229126, 26.6898804 ], [ 95.5452881, 26.8308716 ], [ 95.611084, 26.8140869 ], [ 95.6730957, 26.9030762 ], [ 95.7545166, 26.9005127 ], [ 95.760498, 26.9567261 ], [ 95.8148804, 27.0150757 ], [ 95.876709, 27.0131226 ], [ 95.9567261, 27.06073 ], [ 96.02948, 27.1802979 ], [ 96.1635132, 27.2468872 ], [ 96.4331055, 27.3016968 ], [ 96.5302734, 27.2894897 ], [ 96.6201172, 27.3640747 ], [ 96.8016968, 27.3452759 ], [ 96.8842773, 27.2583008 ], [ 96.8652954, 27.1898804 ], [ 96.9835205, 27.1564941 ], [ 97.0612793, 27.1005249 ], [ 97.1702881, 27.1259155 ], [ 97.0928955, 27.2374878 ], [ 97.0025024, 27.3201294 ], [ 96.9649048, 27.4058838 ], [ 96.9113159, 27.4534912 ], [ 96.9373169, 27.520874 ], [ 96.8972778, 27.6121216 ], [ 96.9907227, 27.6621094 ], [ 97.015686, 27.7318726 ], [ 97.1602783, 27.8137207 ], [ 97.2565308, 27.9005127 ], [ 97.378479, 27.9086914 ], [ 97.3986816, 28.0250854 ], [ 97.3314819, 28.15448 ], [ 97.3753052, 28.2172852 ], [ 97.2252808, 28.2921143 ], [ 97.1704712, 28.2946777 ], [ 97.1270752, 28.348877 ], [ 97.0531006, 28.3508911 ], [ 96.9976807, 28.309082 ], [ 96.9000854, 28.3792725 ], [ 96.7758789, 28.3676758 ], [ 96.7526855, 28.4155273 ], [ 96.6665039, 28.4598999 ], [ 96.600708, 28.4605103 ], [ 96.512329100000017, 28.4127197 ], [ 96.4603271, 28.4136963 ], [ 96.4013062, 28.3389282 ], [ 96.3731079, 28.388916 ], [ 96.2681274, 28.4119263 ], [ 96.3693237, 28.4743042 ], [ 96.3267212, 28.5253296 ], [ 96.4091187, 28.5588989 ], [ 96.4976807, 28.6386719 ], [ 96.4733276, 28.6796875 ], [ 96.5886841, 28.7166748 ], [ 96.6113281, 28.7932739 ], [ 96.5405273, 28.8796997 ], [ 96.5244751, 28.9611206 ], [ 96.4395142, 29.0338745 ], [ 96.3505249, 29.0286865 ], [ 96.2316895, 28.9257202 ], [ 96.1542969, 29.0499268 ], [ 96.2216797, 29.1348877 ], [ 96.3505249, 29.1679077 ], [ 96.3970947, 29.253479 ], [ 96.2385254, 29.2407227 ], [ 96.1876831, 29.3067017 ], [ 96.1549072, 29.3970947 ], [ 96.0856934, 29.4614868 ], [ 95.9620972, 29.3806763 ], [ 95.8859253, 29.3897095 ], [ 95.8452759, 29.3519287 ], [ 95.7827148, 29.3546753 ], [ 95.5906982, 29.2161255 ], [ 95.5499268, 29.2136841 ], [ 95.5515137, 29.126709 ], [ 95.4146729, 29.0321045 ], [ 95.2548828, 29.0667114 ], [ 95.2556763, 29.1082764 ], [ 95.1268921, 29.1146851 ], [ 95.0103149, 29.1693115 ], [ 94.9240723, 29.1610718 ], [ 94.8035278, 29.2091064 ], [ 94.7171021, 29.3037109 ], [ 94.6477051, 29.3464966 ], [ 94.5639038, 29.2282715 ], [ 94.4370728, 29.2263184 ], [ 94.3560791, 29.1497192 ], [ 94.2937012, 29.1477051 ], [ 94.22052, 29.0834961 ], [ 94.1607056, 28.9541016 ], [ 94.0003052, 28.8405151 ], [ 93.9707031, 28.72229 ], [ 93.9246826, 28.6693115 ], [ 93.8493042, 28.7064819 ], [ 93.7805176, 28.6677246 ], [ 93.7368774, 28.6884766 ], [ 93.6123047, 28.6550903 ], [ 93.5010986, 28.6832886 ], [ 93.3378906, 28.6331177 ], [ 93.281311, 28.5040894 ], [ 93.1956787, 28.425293 ], [ 93.2366943, 28.3999023 ], [ 93.1987305, 28.3170776 ], [ 93.1298828, 28.3261108 ], [ 93.0270996, 28.2990723 ], [ 92.9003296, 28.2039185 ], [ 92.7880859, 28.1831055 ], [ 92.6853027, 28.1173096 ], [ 92.6679077, 28.0620728 ], [ 92.7443237, 27.9885254 ], [ 92.6738892, 27.899292 ], [ 92.6096802, 27.876709 ], [ 92.5653076, 27.8201294 ], [ 92.4970703, 27.8358765 ], [ 92.4484863, 27.7999268 ], [ 92.3120728, 27.7785034 ], [ 92.2689209, 27.8572998 ], [ 92.1610718, 27.8364868 ], [ 92.0604858, 27.7584839 ], [ 91.9888916, 27.7694702 ], [ 91.9500732, 27.7280884 ], [ 91.883728, 27.7213135 ], [ 91.833313, 27.8071289 ], [ 91.751709, 27.8029175 ], [ 91.6749268, 27.8563232 ], [ 91.5582886, 27.8582764 ], [ 91.571106, 27.8151245 ], [ 91.633728, 27.8004761 ], [ 91.6290894, 27.7055054 ], [ 91.5629272, 27.6331177 ], [ 91.5670776, 27.5836792 ], [ 91.6580811, 27.4824829 ], [ 91.7785034, 27.4639282 ], [ 91.8538818, 27.4818726 ], [ 91.9439087, 27.4598999 ], [ 92.023315400000016, 27.4788818 ], [ 92.0588989, 27.399292 ], [ 92.0740967, 27.2764893 ], [ 92.0316772, 27.0775146 ], [ 92.1068726, 27.0067139 ], [ 92.1204834, 26.9312744 ], [ 92.1008911, 26.8674927 ], [ 91.9890747, 26.8571167 ], [ 91.9008789, 26.9151001 ], [ 91.8571167, 26.9113159 ], [ 91.8057251, 26.8510742 ], [ 91.7307129, 26.8117065 ], [ 91.6276855, 26.8204956 ], [ 91.4821167, 26.7910767 ], [ 91.4124756, 26.8348999 ], [ 91.340271, 26.7791138 ], [ 91.2664795, 26.8045044 ], [ 91.0935059, 26.8178711 ], [ 91.0582886, 26.7789307 ], [ 90.6539307, 26.7739258 ], [ 90.5648804, 26.8007202 ], [ 90.414917, 26.9016724 ], [ 90.3602905, 26.895874 ], [ 90.3168945, 26.850708 ], [ 90.2315063, 26.8580933 ], [ 90.1940918, 26.7705078 ], [ 90.072876, 26.7318726 ], [ 89.8948975, 26.7243042 ], [ 89.8604736, 26.7028809 ], [ 89.647522, 26.7468872 ], [ 89.6593018, 26.7719116 ], [ 89.5343018, 26.8189087 ], [ 89.3261108, 26.8530884 ], [ 89.2583008, 26.8162842 ], [ 89.1353149, 26.809082 ], [ 89.0922852, 26.8972778 ], [ 89.0338745, 26.9379272 ], [ 88.9910889, 26.9207153 ], [ 88.885498, 27.0383301 ], [ 88.8768921, 27.1085205 ], [ 88.8071289, 27.1367188 ], [ 88.8082886, 27.2474976 ], [ 88.906311, 27.2749023 ], [ 88.9295044, 27.3261108 ], [ 88.8167114, 27.4050903 ], [ 88.7747192, 27.5646973 ], [ 88.8543091, 27.6687012 ], [ 88.8635254, 27.8178711 ], [ 88.8895264, 27.8922729 ], [ 88.8444824, 27.9318848 ], [ 88.8491211, 27.9909058 ], [ 88.7595215, 28.0731201 ], [ 88.675293, 28.0739136 ], [ 88.6463013, 28.104126 ], [ 88.5097046, 28.0487061 ], [ 88.40271, 27.9793091 ], [ 88.3464966, 27.9874878 ], [ 88.2525024, 27.9481201 ], [ 88.1434937, 27.9625244 ], [ 88.138916, 27.8815308 ], [ 88.2025146, 27.8502808 ], [ 88.1989136, 27.7880859 ], [ 88.1578979, 27.7302856 ], [ 88.151123, 27.6687012 ], [ 88.0474854, 27.493103 ], [ 88.0709229, 27.4257202 ], [ 88.0651245, 27.3378906 ], [ 88.0177002, 27.2213135 ], [ 87.9926758, 27.1085205 ], [ 88.0458984, 27.0383301 ], [ 88.1333008, 26.9755249 ], [ 88.1442871, 26.8892822 ], [ 88.172485400000014, 26.868103 ], [ 88.1889038, 26.7293091 ], [ 88.1326904, 26.5740967 ], [ 88.1066895, 26.5552979 ], [ 88.0985107, 26.4345093 ], [ 88.0103149, 26.3551025 ], [ 87.9177246, 26.4331055 ], [ 87.8505249, 26.43573 ], [ 87.7958984, 26.4685059 ], [ 87.7667236, 26.4091187 ], [ 87.6790771, 26.4354858 ], [ 87.6528931, 26.3928833 ], [ 87.586731, 26.3939209 ], [ 87.4785156, 26.4398804 ], [ 87.3886719, 26.4187012 ], [ 87.3413086, 26.3483276 ], [ 87.265686, 26.4080811 ], [ 87.1574707, 26.4058838 ], [ 87.0925293, 26.4520874 ], [ 87.0725098, 26.5864868 ], [ 87.0161133, 26.5338745 ], [ 86.9331055, 26.5119019 ], [ 86.8969116, 26.4614868 ], [ 86.7351074, 26.4244995 ], [ 86.569519, 26.5001221 ], [ 86.5383301, 26.5413208 ], [ 86.3109131, 26.619873 ], [ 86.1434937, 26.6043091 ], [ 86.0302734, 26.6665039 ], [ 85.944519, 26.6157227 ], [ 85.8522949, 26.6082764 ], [ 85.7423096, 26.6448975 ], [ 85.7241211, 26.6810913 ], [ 85.736084, 26.7949219 ], [ 85.6781006, 26.8447266 ], [ 85.6094971, 26.8568726 ], [ 85.4547119, 26.7808838 ], [ 85.4094849, 26.7908936 ], [ 85.3369141, 26.7415161 ], [ 85.2092896, 26.760498 ], [ 85.1793213, 26.8146973 ], [ 85.1956787, 26.8690796 ], [ 85.0328979, 26.8745117 ], [ 84.961731, 26.9628906 ], [ 84.9008789, 26.9733276 ], [ 84.8291016, 27.020874 ], [ 84.763305699999989, 27.0003052 ], [ 84.6463013, 27.0466919 ], [ 84.6859131, 27.1417236 ], [ 84.6915283, 27.2233276 ], [ 84.6262817, 27.3364868 ], [ 84.2772827, 27.3967285 ], [ 84.255127, 27.449707 ], [ 84.1173096, 27.520874 ], [ 84.0256958, 27.4353027 ], [ 83.8452759, 27.4417114 ], [ 83.8234863, 27.3751221 ], [ 83.6087036, 27.4700928 ], [ 83.402099600000014, 27.4780884 ], [ 83.4058838, 27.3986816 ], [ 83.3638916, 27.3441162 ], [ 83.3118896, 27.3292847 ], [ 83.184082, 27.4528809 ], [ 83.055481, 27.4481201 ], [ 82.9473267, 27.4736938 ], [ 82.9257202, 27.5004883 ], [ 82.7462769, 27.5003052 ], [ 82.755127, 27.583313 ], [ 82.7197266, 27.6884766 ], [ 82.690673800000013, 27.7164917 ], [ 82.4771118, 27.6760864 ], [ 82.4298706, 27.6879272 ], [ 82.2072754, 27.8457031 ], [ 82.1260986, 27.8657227 ], [ 82.0745239, 27.9237061 ], [ 81.9713135, 27.9295044 ], [ 81.890686, 27.8577271 ], [ 81.6721191, 27.9896851 ], [ 81.4782715, 28.0841064 ], [ 81.4293213, 28.1710815 ], [ 81.319702100000015, 28.135498 ], [ 81.3204956, 28.2019043 ], [ 81.2404785, 28.2808838 ], [ 81.2149048, 28.3579102 ], [ 81.1102905, 28.3759155 ], [ 81.0302734, 28.4368896 ], [ 80.9025269, 28.4611206 ], [ 80.7026978, 28.5755005 ], [ 80.6699219, 28.6383057 ], [ 80.5941162, 28.6461182 ], [ 80.5579224, 28.6912842 ], [ 80.4622803, 28.6243286 ], [ 80.3723145, 28.6333008 ], [ 80.247680699999989, 28.7583008 ], [ 80.1995239, 28.7664795 ], [ 80.1334839, 28.8220825 ], [ 80.0637207, 28.8452759 ], [ 80.06988530000001, 28.9265137 ], [ 80.1212769, 28.9852905 ], [ 80.1362915, 29.0725098 ], [ 80.190307600000011, 29.1333008 ], [ 80.274292, 29.1491089 ], [ 80.3167114, 29.3225098 ], [ 80.2855225, 29.343689 ], [ 80.2470703, 29.4459229 ], [ 80.3516846, 29.5148926 ], [ 80.3494873, 29.5474854 ], [ 80.4246826, 29.635498 ], [ 80.3704834, 29.7250977 ], [ 80.4099121, 29.7885132 ], [ 80.4899292, 29.7937012 ], [ 80.5552979, 29.85369870000001 ], [ 80.5725098, 29.9230957 ], [ 80.6290894, 29.9639282 ], [ 80.6817017, 29.9606934 ], [ 80.7625122, 30.0479126 ], [ 80.8748779, 30.1304932 ], [ 80.8679199, 30.171875 ], [ 81.0430908, 30.1984863 ], [ 81.0084839, 30.2648926 ], [ 80.8256836, 30.31427 ], [ 80.7459106, 30.3967285 ], [ 80.6082764, 30.4766846 ], [ 80.5344849, 30.4509277 ], [ 80.499877900000016, 30.4849243 ], [ 80.3828735, 30.5213013 ], [ 80.2927246, 30.5689087 ], [ 80.225708, 30.5767212 ], [ 80.2523193, 30.7351074 ], [ 80.1826782, 30.8016968 ], [ 80.1182861, 30.7741089 ], [ 79.9829102, 30.876709 ], [ 79.9302979, 30.8867188 ], [ 79.8673096, 30.9746704 ], [ 79.753479, 31.0006714 ], [ 79.6046753, 30.9375 ], [ 79.5482788, 30.9678955 ], [ 79.5164795, 31.0336914 ], [ 79.4282837, 31.0321045 ], [ 79.3972778, 31.1130981 ], [ 79.300293, 31.164917 ], [ 79.2636719, 31.2915039 ], [ 79.1447144, 31.4337158 ], [ 79.0726929, 31.4672852 ], [ 79.0090942, 31.3624878 ], [ 78.940918, 31.3267212 ], [ 78.8936768, 31.2678833 ], [ 78.8081055, 31.4129028 ], [ 78.8112793, 31.447876 ], [ 78.7224731, 31.5162964 ], [ 78.8132935, 31.5712891 ], [ 78.84729, 31.6151123 ], [ 78.7504883, 31.6873169 ], [ 78.7092896, 31.8098755 ], [ 78.787902800000012, 31.9954834 ], [ 78.7539062, 31.9996948 ], [ 78.5913086, 32.15448 ], [ 78.6101074, 32.2144775 ], [ 78.4815063, 32.2739258 ], [ 78.4785156, 32.3331299 ], [ 78.5363159, 32.4146729 ], [ 78.4556885, 32.4526978 ], [ 78.416687, 32.5227051 ], [ 78.4439087, 32.5698853 ], [ 78.5357056, 32.6087036 ], [ 78.6190796, 32.5961304 ], [ 78.6622925, 32.6539307 ], [ 78.7626953, 32.6550903 ], [ 78.7764893, 32.5731201 ], [ 78.8272705, 32.4387207 ], [ 78.960083, 32.3668823 ], [ 79.1135254, 32.3833008 ], [ 79.1951294, 32.4830933 ], [ 79.3394775, 32.5921021 ], [ 79.4481201, 32.5324707 ], [ 79.6268921, 32.7374878 ], [ 79.5733032, 32.7824707 ], [ 79.4641113, 32.920105 ], [ 79.3834839, 32.97229 ], [ 79.3770752, 33.0825195 ], [ 79.4467163, 33.2058716 ], [ 79.4475098, 33.2648926 ], [ 79.3156738, 33.2733154 ], [ 79.2407227, 33.2979126 ], [ 79.097473100000016, 33.2946777 ], [ 78.9935303, 33.3308716 ], [ 78.9332886, 33.4329224 ], [ 78.9406738, 33.5264893 ], [ 78.9193115, 33.633728 ], [ 78.9996948, 33.6123047 ], [ 79.0654907, 33.6268921 ], [ 79.0205078, 33.7056885 ], [ 79.0134888, 33.7835083 ], [ 78.9050903, 33.9719238 ], [ 78.9406738, 34.0241089 ], [ 79.0148926, 34.050293 ], [ 79.0841064, 34.0219116 ], [ 79.1491089, 34.0632935 ], [ 79.3756714, 34.0335083 ], [ 79.494873, 34.1359253 ], [ 79.5073242, 34.2058716 ], [ 79.5648804, 34.2178955 ], [ 79.5922852, 34.2816772 ], [ 79.5596924, 34.3325195 ], [ 79.5596924, 34.4113159 ], [ 79.5084839, 34.4743042 ], [ 79.5803223, 34.4899292 ], [ 79.7943115, 34.4852905 ], [ 79.7584839, 34.5546875 ], [ 79.7720947, 34.6224976 ], [ 79.8607178, 34.6887207 ], [ 79.9447021, 34.6810913 ], [ 80.0690918, 34.7149048 ], [ 80.0731201, 34.8284912 ], [ 80.1708984, 34.9888916 ], [ 80.1834717, 35.166687 ], [ 80.2286987, 35.2280884 ], [ 80.2836914, 35.3878784 ], [ 80.2811279, 35.440918 ], [ 80.3286743, 35.4727173 ], [ 80.2946777, 35.602478 ], [ 80.237487800000011, 35.6419067 ], [ 80.1080933, 35.6809082 ], [ 79.9993286, 35.8378906 ], [ 79.9187012, 35.8223267 ], [ 79.8688965, 35.7828979 ], [ 79.7460938, 35.800293 ], [ 79.5184937, 35.8834839 ], [ 79.4177246, 35.8997192 ], [ 79.3869019, 35.9904785 ], [ 79.2418823, 35.9868774 ], [ 79.1898804, 35.9473267 ], [ 79.1802979, 35.8703003 ], [ 79.1176758, 35.836731 ], [ 78.9398804, 35.8796997 ], [ 78.81073, 35.8552856 ], [ 78.6583252, 35.853881799999989 ], [ 78.5213013, 35.763916 ], [ 78.4232788, 35.7852783 ], [ 78.3861084, 35.7354736 ], [ 78.2733154, 35.7219238 ], [ 78.255127, 35.6456909 ], [ 78.1976929, 35.6663208 ], [ 78.1373291, 35.5388794 ], [ 78.0463257, 35.5853271 ], [ 77.9672852, 35.5750732 ], [ 77.9058838, 35.4692993 ], [ 77.8256836, 35.510498 ], [ 77.725524900000011, 35.4771118 ], [ 77.6140747, 35.4697266 ], [ 77.5169067, 35.4887085 ], [ 77.4506836, 35.4628906 ], [ 77.381897, 35.4765015 ], [ 77.378479, 35.5504761 ], [ 77.4724731, 35.5211182 ], [ 77.4379272, 35.6411133 ], [ 77.3585205, 35.717712399999989 ], [ 77.2246704, 35.7150879 ], [ 77.1195068, 35.7965088 ], [ 77.0045166, 35.7750854 ], [ 76.9353027, 35.7841187 ], [ 76.803894, 35.8505249 ], [ 76.7229004, 35.9534912 ], [ 76.8007202, 36.0490723 ], [ 76.7260742, 36.0784912 ], [ 76.6373291, 36.1848755 ], [ 76.6010742, 36.1655273 ], [ 76.4816895, 36.2114868 ], [ 76.4321289, 36.3082886 ], [ 76.352478, 36.3599243 ], [ 76.2548828, 36.3479004 ], [ 76.1732788, 36.3903198 ], [ 76.0692749, 36.477478 ], [ 75.9232788, 36.5025024 ], [ 75.7484741, 36.588501 ], [ 75.6234741, 36.7503052 ], [ 75.4743042, 36.81073 ], [ 75.4279175, 36.9520874 ], [ 75.3474731, 36.9915161 ], [ 75.3449097, 37.0515137 ], [ 75.258728, 37.0509033 ], [ 75.1359253, 36.9572754 ], [ 75.0870972, 36.9428711 ], [ 75.0186768, 36.9765015 ], [ 74.9141235, 36.9091187 ], [ 74.8339233, 37.0249023 ], [ 74.7282715, 37.026123 ], [ 74.7086792, 37.0776978 ], [ 74.5894775, 37.0286865 ], [ 74.5338745, 36.986084 ], [ 74.4296875, 36.9901123 ], [ 74.2614746, 36.8864746 ], [ 74.1735229, 36.9039307 ], [ 74.1464844, 36.8471069 ], [ 74.0523071, 36.8067017 ], [ 73.9379272, 36.8740845 ], [ 73.7113037, 36.9129028 ], [ 73.7265015, 36.8327026 ], [ 73.8637085, 36.7883301 ], [ 73.9000854, 36.7496948 ], [ 73.866272, 36.7000732 ], [ 73.7250977, 36.710083 ], [ 73.7006836, 36.6848755 ], [ 73.6057129, 36.7156982 ], [ 73.5114746, 36.7155151 ], [ 73.4362793, 36.7446899 ], [ 73.3148804, 36.7064819 ], [ 73.085083, 36.682312 ], [ 73.1124878, 36.6101074 ], [ 72.9863281, 36.4622803 ], [ 72.8775024, 36.4381104 ], [ 72.8869019, 36.3911133 ], [ 72.7786865, 36.3098755 ], [ 72.6818848, 36.2628784 ], [ 72.5971069, 36.2642822 ], [ 72.5515137, 36.1812744 ], [ 72.5739136, 36.1508789 ], [ 72.5316772, 36.0725098 ], [ 72.5961304, 36.0272827 ], [ 72.5338745, 35.9174805 ], [ 72.6912842, 35.8328857 ], [ 72.7235107, 35.8538818 ], [ 72.9016724, 35.8817139 ], [ 72.9080811, 35.8500977 ], [ 73.0380859, 35.8546753 ], [ 73.0792847, 35.8862915 ], [ 73.1542969, 35.8416748 ], [ 73.1392822, 35.718689 ], [ 73.2727051, 35.6298828 ], [ 73.3696899, 35.6043091 ], [ 73.4069214, 35.5640869 ], [ 73.4816895, 35.5772705 ], [ 73.5579224, 35.5557251 ], [ 73.6392822, 35.5709229 ], [ 73.786071800000016, 35.5244751 ], [ 73.7915039, 35.4564819 ], [ 73.7141113, 35.3911133 ], [ 73.6998901, 35.3233032 ], [ 73.7775269, 35.2438965 ], [ 73.9172974, 35.2122803 ], [ 73.9636841, 35.1740723 ], [ 74.0805054, 35.1547241 ], [ 74.065918, 34.9301147 ], [ 74.0258789, 34.8754883 ], [ 73.9567261, 34.8361206 ], [ 73.7315063, 34.7714844 ], [ 73.6702881, 34.6896973 ], [ 73.6903076, 34.6436768 ], [ 73.660888700000015, 34.5891113 ], [ 73.5535278, 34.5930786 ], [ 73.4428711, 34.5654907 ], [ 73.4263306, 34.3494873 ], [ 73.493103, 34.2202759 ], [ 73.5150757, 34.0067139 ], [ 73.5863037, 33.8994751 ], [ 73.5584717, 33.7836914 ], [ 73.5977173, 33.7163086 ], [ 73.5626831, 33.6738892 ], [ 73.6311035, 33.5379028 ], [ 73.5588989, 33.3737183 ], [ 73.6057129, 33.251709 ], [ 73.6580811, 33.2050781 ], [ 73.631897, 33.086731 ], [ 73.6884766, 33.088501 ], [ 73.788696300000012, 32.9984741 ], [ 73.958313, 32.9868774 ], [ 74.055481, 32.9116821 ], [ 74.1782837, 32.8831177 ], [ 74.2172852, 32.8452759 ], [ 74.2999268, 32.8245239 ], [ 74.383728, 32.7578735 ], [ 74.4545288, 32.7844849 ], [ 74.5073242, 32.7438965 ], [ 74.6166992, 32.7553101 ], [ 74.692688, 32.6549072 ], [ 74.6522827, 32.6296997 ], [ 74.6520996, 32.5593262 ], [ 74.7158813, 32.4707031 ], [ 74.8765259, 32.4824829 ], [ 74.9467163, 32.4434814 ], [ 75.0333252, 32.4926758 ], [ 75.1101074, 32.4702759 ], [ 75.1304932, 32.4061279 ], [ 75.1896973, 32.4199219 ], [ 75.3413086, 32.3206787 ], [ 75.3787231, 32.2396851 ], [ 75.3327026, 32.218689 ], [ 75.2828979, 32.1195068 ], [ 75.2396851, 32.0908813 ], [ 75.1347046, 32.0841064 ], [ 74.9846802, 32.0429077 ], [ 74.9403076, 32.0670776 ], [ 74.8765259, 32.0463257 ], [ 74.8154907, 31.9633179 ], [ 74.6658936, 31.9116821 ], [ 74.5698853, 31.8306885 ], [ 74.5654907, 31.7592773 ], [ 74.486084, 31.7224731 ], [ 74.5360718, 31.6809082 ], [ 74.5540771, 31.6182861 ], [ 74.6204834, 31.5665283 ], [ 74.5858765, 31.5211182 ], [ 74.6550903, 31.4627075 ], [ 74.5535278, 31.3668823 ], [ 74.5234985, 31.2736816 ], [ 74.5183105, 31.1369019 ], [ 74.6915283, 31.1296997 ], [ 74.6680908, 31.0551147 ], [ 74.5499268, 31.0324707 ], [ 74.5501099, 30.9943237 ], [ 74.4279175, 30.944519 ], [ 74.3275146, 30.848877 ], [ 74.3103027, 30.7871094 ], [ 74.265686, 30.7659302 ], [ 74.1992798, 30.6687012 ], [ 74.1027222, 30.5996704 ], [ 74.067688, 30.5206909 ], [ 74.0159302, 30.5327148 ], [ 73.8864746, 30.3654785 ], [ 73.9677124, 30.2633057 ], [ 73.9758911, 30.1964722 ], [ 73.8032837, 30.0714722 ], [ 73.6201172, 30.0247192 ], [ 73.4077148, 29.9462891 ], [ 73.2786865, 29.5596924 ], [ 73.0848999, 29.2365112 ], [ 72.9989014, 29.1427002 ], [ 72.9495239, 29.0330811 ], [ 72.746704100000017, 28.9520874 ], [ 72.4893188, 28.8148804 ], [ 72.4071045, 28.7827148 ], [ 72.3117065, 28.6862793 ], [ 72.2053223, 28.3905029 ], [ 72.1287231, 28.3088989 ], [ 71.9990845, 28.2141113 ], [ 71.932312, 28.1279297 ], [ 71.8986816, 27.9633179 ], [ 71.6588745, 27.8754883 ], [ 71.409729, 27.8734741 ], [ 71.208129900000017, 27.8328857 ], [ 70.9052734, 27.7105103 ], [ 70.7678833, 27.7249146 ], [ 70.6875, 27.828125 ], [ 70.677124, 27.9238892 ], [ 70.5925293, 28.0097046 ], [ 70.496704100000017, 28.0366821 ], [ 70.3743286, 28.012085 ], [ 70.3103027, 27.9489136 ], [ 70.2249146, 27.8984985 ], [ 70.1347046, 27.8071289 ], [ 70.0247192, 27.5612793 ], [ 69.940918, 27.5025024 ], [ 69.8717041, 27.4093018 ], [ 69.7050781, 27.2852783 ], [ 69.5897217, 27.1829224 ], [ 69.5155029, 27.0145264 ], [ 69.4844971, 26.8081055 ], [ 69.5147095, 26.7418823 ], [ 69.7108765, 26.6621094 ], [ 69.8045044, 26.5977173 ], [ 69.8795166, 26.5806885 ], [ 70.0485229, 26.6010742 ], [ 70.1732788, 26.5510864 ], [ 70.183471700000013, 26.3615112 ], [ 70.1721191, 26.2310791 ], [ 70.086486800000017, 26.0878906 ], [ 70.0993042, 25.9354858 ], [ 70.1688843, 25.8305054 ], [ 70.2354736, 25.7769165 ], [ 70.276123, 25.7092896 ], [ 70.390686, 25.6737061 ], [ 70.524292, 25.6854858 ], [ 70.593689, 25.7120972 ], [ 70.6730957, 25.6693115 ], [ 70.6652832, 25.3977051 ], [ 70.7354736, 25.3289185 ], [ 70.750305200000014, 25.2828979 ], [ 70.885498, 25.1513062 ], [ 70.9362793, 24.9412842 ], [ 71.026123, 24.8051147 ], [ 71.0755005, 24.6674805 ], [ 70.9907227, 24.6055298 ], [ 71.0001221, 24.4459229 ], [ 71.1091309, 24.4368896 ], [ 71.0562744, 24.3615112 ], [ 70.9490967, 24.352478 ], [ 70.8792725, 24.3029175 ], [ 70.8790894, 24.246521 ], [ 70.7221069, 24.2166748 ], [ 70.574279800000014, 24.255127 ], [ 70.5598755, 24.352478 ], [ 70.5734863, 24.4216919 ], [ 70.3724976, 24.3536987 ], [ 70.1080933, 24.2937012 ], [ 70.0639038, 24.1967163 ], [ 70.0164795, 24.1699219 ], [ 69.7301025, 24.171875 ], [ 69.5878906, 24.2913208 ], [ 69.4844971, 24.2678833 ], [ 69.3087158, 24.2807007 ], [ 69.192688, 24.237915 ], [ 69.0980835, 24.2720947 ], [ 69.005310100000017, 24.2233276 ], [ 68.9432983, 24.302124 ], [ 68.8510742, 24.2211304 ], [ 68.8275146, 24.3168945 ], [ 68.7692871, 24.2849121 ], [ 68.753479, 23.9697266 ], [ 68.5496826, 23.9677124 ], [ 68.6013184, 23.8441162 ], [ 68.7487183, 23.8635254 ], [ 68.7354736, 23.838501 ], [ 68.6593018, 23.8031006 ], [ 68.5584717, 23.7191162 ], [ 68.4893188, 23.6353149 ], [ 68.4921265, 23.5493164 ], [ 68.5062866, 23.463501 ], [ 68.5250854, 23.4558716 ], [ 68.5407104, 23.4254761 ], [ 68.5341187, 23.4309082 ], [ 68.5725098, 23.3762817 ], [ 68.628479, 23.3513184 ], [ 68.6345215, 23.3471069 ], [ 68.6279297, 23.244873 ], [ 68.6237183, 23.2255249 ], [ 68.6602783, 23.1494751 ], [ 68.9876709, 22.9562988 ], [ 69.1975098, 22.838501 ], [ 69.3187256, 22.8322754 ], [ 69.446106, 22.77771 ], [ 69.6362915, 22.7758789 ], [ 69.6362915, 22.7907104 ], [ 69.7142944, 22.7509155 ], [ 69.7526855, 22.8197021 ], [ 69.8679199, 22.8729248 ], [ 70.1063232, 22.9094849 ], [ 70.0977173, 22.942688 ], [ 70.1627197, 22.9428711 ], [ 70.2365112, 22.9799194 ], [ 70.3466797, 22.930481 ], [ 70.3934937, 22.9633179 ], [ 70.3964844, 23.0255127 ], [ 70.4702759, 23.0100708 ], [ 70.3850708, 22.9094849 ], [ 70.2855225, 22.7470703 ], [ 70.2756958, 22.7321167 ], [ 70.2545166, 22.7327271 ], [ 70.2542725, 22.729126 ], [ 70.2418823, 22.6821289 ], [ 70.244873, 22.6749268 ], [ 70.2192993, 22.6383057 ], [ 70.1976929, 22.6165161 ], [ 70.1713257, 22.5571289 ], [ 70.039306600000018, 22.5609131 ], [ 69.9462891, 22.5286865 ], [ 69.9099121, 22.4671021 ], [ 69.8270874, 22.4481201 ], [ 69.7883301, 22.4057007 ], [ 69.7407227, 22.458313 ], [ 69.6992798, 22.395874 ], [ 69.6063232, 22.343689 ], [ 69.5213013, 22.3792725 ], [ 69.4191284, 22.315918 ], [ 69.3378906, 22.3168945 ], [ 69.2235107, 22.2581177 ], [ 69.1580811, 22.3162842 ], [ 69.184082, 22.3825073 ], [ 69.1101074, 22.4099121 ], [ 69.0692749, 22.395874 ], [ 69.0178833, 22.4467163 ], [ 68.984314, 22.4138794 ], [ 68.9365234, 22.3067017 ], [ 68.9818726, 22.2111206 ], [ 69.2365112, 21.9384766 ], [ 69.58410640000001, 21.6381226 ], [ 69.6021118, 21.6375122 ], [ 69.7272949, 21.5136719 ], [ 70.008728, 21.1964722 ], [ 70.100708, 21.1051025 ], [ 70.2443237, 20.9979248 ], [ 70.3505249, 20.9199219 ], [ 70.4180908, 20.8826904 ], [ 70.4249268, 20.8635254 ], [ 70.5864868, 20.7814941 ], [ 70.6744995, 20.7576904 ], [ 70.8291016, 20.6903076 ], [ 70.8626709, 20.7520752 ], [ 70.9259033, 20.7376709 ], [ 70.9462891, 20.734314 ], [ 71.050476100000012, 20.7313232 ], [ 71.1491089, 20.7576904 ], [ 71.3226929, 20.8461304 ], [ 71.4216919, 20.8673096 ], [ 71.4772949, 20.8900757 ], [ 71.5128784, 20.9468994 ], [ 71.6361084, 20.9733276 ], [ 71.901123, 21.1085205 ], [ 71.9707031, 21.1229248 ], [ 72.1057129, 21.1968994 ], [ 72.0820923, 21.2457275 ], [ 72.1217041, 21.3256836 ], [ 72.2097168, 21.4229126 ], [ 72.3057251, 21.6275024 ], [ 72.2415161, 21.7869263 ], [ 72.2070923, 21.8212891 ], [ 72.2583008, 21.8796997 ], [ 72.225708, 21.9411011 ], [ 72.1571045, 21.9719238 ], [ 72.2214966, 21.9570923 ], [ 72.2871094, 21.9996948 ], [ 72.3248901, 22.1467285 ], [ 72.3912964, 22.1807251 ], [ 72.4165039, 22.227478 ], [ 72.5446777, 22.2440796 ], [ 72.656311, 22.2791138 ], [ 72.6915283, 22.2373047 ], [ 72.7592773, 22.2316895 ], [ 72.7583008, 22.1744995 ], [ 72.6472778, 22.2171021 ], [ 72.6013184, 22.213501 ], [ 72.546875, 22.1477051 ], [ 72.5023193, 21.9417114 ], [ 72.5184937, 21.8782959 ], [ 72.6171265, 21.8690796 ], [ 72.5523071, 21.7924805 ], [ 72.5178833, 21.7069092 ], [ 72.5474854, 21.6586914 ], [ 72.5979004, 21.6807251 ], [ 72.6282959, 21.6168823 ], [ 72.6126709, 21.5574951 ], [ 72.6715088, 21.5148926 ], [ 72.6693115, 21.4468994 ], [ 72.5957031, 21.3161011 ], [ 72.5964966, 21.2814941 ], [ 72.6622925, 21.1484985 ], [ 72.72052, 21.1434937 ], [ 72.6998901, 21.0609131 ], [ 72.7828979, 20.8999023 ], [ 72.8377075, 20.7606812 ], [ 72.8826904, 20.6102905 ], [ 72.8731079, 20.5065308 ], [ 72.8256836, 20.4506836 ], [ 72.8043213, 20.3768921 ], [ 72.7598877, 20.3347168 ], [ 72.7457275, 20.2020874 ], [ 72.7042847, 20.0811157 ], [ 72.7194824, 19.979126 ], [ 72.6633301, 19.9179077 ], [ 72.6444702, 19.8391113 ], [ 72.6868896, 19.7938843 ], [ 72.6760864, 19.7141113 ], [ 72.7213135, 19.6021118 ], [ 72.7098999, 19.5667114 ], [ 72.7487183, 19.4859009 ], [ 72.7576904, 19.3737183 ], [ 72.7844849, 19.2999268 ], [ 72.7869263, 19.1483154 ], [ 72.817688, 19.1224976 ], [ 72.8112793, 18.8936768 ], [ 72.8649292, 18.8043213 ], [ 72.8530884, 18.692688 ], [ 72.8676758, 18.6204834 ], [ 72.9078979, 18.5786743 ], [ 72.899292, 18.4658813 ], [ 72.9124756, 18.361084 ], [ 72.9625244, 18.3162842 ], [ 72.9326782, 18.2807007 ], [ 72.9763184, 18.1992798 ], [ 72.9708862, 18.1292725 ], [ 73.001709, 18.0737305 ], [ 73.0336914, 17.9365234 ], [ 73.0759277, 17.8779297 ], [ 73.1381226, 17.718689 ], [ 73.1171265, 17.6931152 ], [ 73.1447144, 17.5490723 ], [ 73.1837158, 17.5081177 ], [ 73.1881104, 17.383728 ], [ 73.2194824, 17.369873 ], [ 73.2197266, 17.2750854 ], [ 73.2824707, 17.1113281 ], [ 73.2946777, 16.9749146 ], [ 73.2822876, 16.8931274 ], [ 73.317688, 16.7971191 ], [ 73.3045044, 16.7429199 ], [ 73.3275146, 16.6754761 ], [ 73.3146973, 16.5388794 ], [ 73.3726807, 16.362915 ], [ 73.4061279, 16.2946777 ], [ 73.4741211, 16.0961304 ], [ 73.4876709, 15.9750977 ], [ 73.5125122, 15.9390869 ], [ 73.5894775, 15.9102783 ], [ 73.6289063, 15.855896 ], [ 73.7017212, 15.6906738 ], [ 73.7672729, 15.4946899 ], [ 73.8400879, 15.4484863 ], [ 73.8430786, 15.361084 ], [ 73.8792725, 15.3632812 ], [ 73.958313, 15.1442871 ], [ 73.9143066, 15.0897217 ], [ 74.0457153, 14.9871216 ], [ 74.0460815, 14.9133301 ], [ 74.0969238, 14.8933105 ], [ 74.1251221, 14.8334961 ], [ 74.1079102, 14.7857056 ], [ 74.2039185, 14.7329102 ], [ 74.2625122, 14.7224731 ], [ 74.2786865, 14.6195068 ], [ 74.3308716, 14.5142822 ], [ 74.3690796, 14.5429077 ], [ 74.414123500000017, 14.3118896 ], [ 74.4650879, 14.1983032 ], [ 74.5159302, 13.989502 ], [ 74.5668945, 13.9484863 ], [ 74.6143188, 13.8353271 ], [ 74.6453247, 13.6730957 ], [ 74.7280884, 13.6350708 ], [ 74.6721191, 13.5999146 ], [ 74.6854858, 13.4727173 ], [ 74.72229, 13.4586792 ], [ 74.6947021, 13.3577271 ], [ 74.7518921, 13.1760864 ], [ 74.8071289, 12.8947144 ], [ 74.9835205, 12.4854736 ], [ 75.0905151, 12.2888794 ], [ 75.2019043, 12.0177002 ], [ 75.2435303, 12.0211182 ], [ 75.3685303, 11.8519287 ], [ 75.3842773, 11.8602905 ], [ 75.5471191, 11.6760864 ], [ 75.6207275, 11.4772949 ], [ 75.6766968, 11.4503174 ], [ 75.7396851, 11.3571167 ], [ 75.7979126, 11.1793213 ], [ 75.8339233, 11.1130981 ], [ 75.8668823, 10.9932861 ], [ 75.9016724, 10.8024902 ], [ 76.0983276, 10.3840942 ], [ 76.1398926, 10.2329102 ], [ 76.1668701, 10.18927 ], [ 76.2025146, 10.0490723 ], [ 76.2626953, 9.8859253 ], [ 76.2901001, 9.6724854 ], [ 76.3372803, 9.4223022 ], [ 76.465271, 9.1195068 ], [ 76.5236816, 8.9959106 ], [ 76.5494995, 8.8980713 ], [ 76.6146851, 8.8560791 ], [ 76.973877, 8.390686 ], [ 77.3175049, 8.1212769 ], [ 77.5046997, 8.0800781 ], [ 77.555725099999989, 8.0789185 ], [ 77.5892944, 8.1414795 ], [ 77.7424927, 8.1716919 ], [ 77.8145142, 8.2462769 ], [ 77.8695068, 8.2606812 ], [ 77.9744873, 8.3344727 ], [ 78.0408936, 8.3582764 ], [ 78.133117700000014, 8.4987183 ], [ 78.1419067, 8.5908813 ], [ 78.1262817, 8.6353149 ], [ 78.1699219, 8.7435303 ], [ 78.1721191, 8.8804932 ], [ 78.2125244, 8.961731 ], [ 78.2821045, 9.0214844 ], [ 78.4223022, 9.1135254 ], [ 78.5275269, 9.1361084 ], [ 78.5755005, 9.128479 ], [ 78.6516724, 9.1574707 ], [ 78.672912599999989, 9.1937256 ], [ 78.8776855, 9.2567139 ], [ 78.987915, 9.2753296 ], [ 79.0938721, 9.2598877 ], [ 78.9876709, 9.354126 ], [ 78.8989258, 9.460083 ], [ 78.925293, 9.5864868 ], [ 78.9874878, 9.7072754 ], [ 79.1229248, 9.8563232 ], [ 79.1254883, 9.8886719 ], [ 79.2180786, 10.0026855 ], [ 79.2634888, 10.0358887 ], [ 79.2263184, 10.1016846 ], [ 79.2756958, 10.2382813 ], [ 79.3878784, 10.3217163 ], [ 79.4387207, 10.324707 ], [ 79.7949219, 10.2713013 ], [ 79.8789062, 10.2874756 ], [ 79.8615112, 10.4926758 ], [ 79.848877, 10.9014893 ], [ 79.8568726, 11.0126953 ], [ 79.8538818, 11.1953125 ], [ 79.8399048, 11.3535156 ], [ 79.763305699999989, 11.5374756 ], [ 79.7592773, 11.6126709 ], [ 79.8233032, 11.8991089 ], [ 79.8599243, 12.0133057 ], [ 80.0192871, 12.2821045 ], [ 80.138305699999989, 12.4324951 ], [ 80.2556763, 12.7814941 ], [ 80.2603149, 12.9373169 ], [ 80.2977295, 13.1254883 ], [ 80.3419189, 13.270874 ], [ 80.3120728, 13.4512939 ], [ 80.2445068, 13.6190796 ], [ 80.2354736, 13.6832886 ], [ 80.2495117, 13.7885132 ], [ 80.1536865, 14.024292 ], [ 80.1289062, 14.1843262 ], [ 80.1730957, 14.3466797 ], [ 80.1947021, 14.5639038 ], [ 80.0958862, 14.7797241 ], [ 80.0930786, 14.833313 ], [ 80.0457153, 15.0496826 ], [ 80.0875244, 15.2119141 ], [ 80.0805054, 15.2670898 ], [ 80.130493199999989, 15.3804932 ], [ 80.1967163, 15.4625244 ], [ 80.2396851, 15.6140747 ], [ 80.27948, 15.684082 ], [ 80.3452759, 15.7523193 ], [ 80.5213013, 15.8458862 ], [ 80.5236816, 15.8609009 ], [ 80.7305298, 15.8862915 ], [ 80.815918, 15.8095093 ], [ 80.803894, 15.7199097 ], [ 80.9454956, 15.7280884 ], [ 80.9871216, 15.7554932 ], [ 80.996093800000011, 15.8242798 ], [ 81.0452881, 15.8972778 ], [ 81.1528931, 15.9749146 ], [ 81.2227173, 16.2269287 ], [ 81.2484741, 16.2520752 ], [ 81.265686, 16.2943115 ], [ 81.258483900000016, 16.3190918 ], [ 81.2872925, 16.3240967 ], [ 81.3126831, 16.3602905 ], [ 81.4047241, 16.3369141 ], [ 81.5545044, 16.3602905 ], [ 81.7258911, 16.3074951 ], [ 81.840271, 16.3643188 ], [ 81.9675293, 16.3963013 ], [ 82.1831055, 16.5026855 ], [ 82.2982788, 16.5704956 ], [ 82.351318400000011, 16.7235107 ], [ 82.3756714, 16.8425293 ], [ 82.2697144, 16.8671265 ], [ 82.2487183, 16.8970947 ], [ 82.3010864, 17.024292 ], [ 82.4456787, 17.1641235 ], [ 82.5603027, 17.2561035 ], [ 82.7531128, 17.3660889 ], [ 82.9929199, 17.4708862 ], [ 83.0446777, 17.5164795 ], [ 83.2166748, 17.5894775 ], [ 83.3045044, 17.6956787 ], [ 83.4163208, 17.8074951 ], [ 83.4143066, 17.8414917 ], [ 83.4746704, 17.9105225 ], [ 83.5543213, 17.9627075 ], [ 83.5661011, 18.0020752 ], [ 83.703125, 18.1016846 ], [ 83.8695068, 18.1708984 ], [ 83.8977051, 18.1970825 ], [ 84.0584717, 18.2640991 ], [ 84.1182861, 18.3010864 ], [ 84.1478882, 18.3671265 ], [ 84.2824707, 18.4951172 ], [ 84.3101196, 18.5545044 ], [ 84.3624878, 18.5764771 ], [ 84.4932861, 18.7338867 ], [ 84.5537109, 18.7833252 ], [ 84.581298800000013, 18.8671265 ], [ 84.6920776, 18.9694824 ], [ 84.8250732, 19.1744995 ], [ 84.9672852, 19.3040771 ], [ 85.0922852, 19.3796997 ], [ 85.0996704, 19.4035034 ], [ 85.2142944, 19.4940796 ], [ 85.3510742, 19.5839233 ], [ 85.6962891, 19.7512817 ], [ 85.8978882, 19.8170776 ], [ 86.0454712, 19.8414917 ], [ 86.2286987, 19.8944702 ], [ 86.3666992, 19.9476929 ], [ 86.4290771, 20.0529175 ], [ 86.4799194, 20.0916748 ], [ 86.5270996, 20.1674805 ], [ 86.6082764, 20.2272949 ], [ 86.7838745, 20.3259277 ], [ 86.7811279, 20.3809204 ], [ 86.7332764, 20.4105225 ], [ 86.782287599999989, 20.5236816 ], [ 87.0150757, 20.6832886 ], [ 86.9743042, 20.7930908 ], [ 86.979126, 20.8602905 ], [ 86.8751221, 21.0438843 ], [ 86.8433228, 21.1566772 ], [ 86.8657227, 21.2219238 ], [ 86.9473267, 21.3521118 ], [ 87.1503296, 21.5078735 ], [ 87.2380981, 21.5374756 ], [ 87.3876953, 21.5322876 ], [ 87.4744873, 21.5999146 ], [ 87.7067261, 21.6447144 ], [ 87.836731, 21.7163086 ], [ 87.9608765, 21.8261108 ], [ 88.0531006, 22.0103149 ], [ 88.148681599999989, 22.0596924 ], [ 88.214294400000014, 22.0358887 ], [ 88.1535034, 21.9569092 ], [ 88.1635132, 21.8796997 ], [ 88.2175293, 21.7645264 ], [ 88.2791138, 21.7697144 ], [ 88.2636719, 21.8140869 ], [ 88.3139038, 21.8582764 ], [ 88.3262939, 21.8623047 ], [ 88.3397217, 21.8609009 ], [ 88.3557129, 21.8532715 ], [ 88.3649292, 21.7974854 ], [ 88.3925171, 21.8032837 ], [ 88.3856812, 21.8394775 ], [ 88.3972778, 21.8859253 ], [ 88.416687, 21.9028931 ], [ 88.4257202, 21.9072876 ], [ 88.4343262, 21.9036865 ], [ 88.4417114, 21.911499 ], [ 88.461731, 21.9177246 ], [ 88.4564819, 21.8989258 ], [ 88.4741211, 21.8956909 ], [ 88.5285034, 21.8532715 ], [ 88.6022949, 21.9066772 ], [ 88.6010742, 21.9873047 ], [ 88.6362915, 22.0437012 ], [ 88.6187134, 22.1087036 ], [ 88.672729500000017, 22.2050781 ], [ 88.703125, 22.2092896 ], [ 88.7318726, 22.1956787 ], [ 88.7869263, 22.2576904 ] ] ] ] } }
]
}
